OBJECT_NAME,OBJECT_ID,EPOCH,MEAN_MOTION,ECCENTRICITY,INCLINATION,RA_OF_ASC_NODE,ARG_OF_PERICENTER,MEAN_ANOMALY,EPHEMERIS_TYPE,CLASSIFICATION_TYPE,NORAD_CAT_ID,ELEMENT_SET_NO,REV_AT_EPOCH,BSTAR,MEAN_MOTION_DOT,MEAN_MOTION_DDOT
2024-205D,2024-205D,2026-07-21T06:30:34.270272,15.18369672,.00101933,97.4077,273.0563,301.4897,58.5340,0,U,61897,999,9345,.22017307E-3,.4462E-4,0
2024-205E,2024-205E,2026-07-21T06:05:23.789184,15.11429755,.00540784,97.4099,271.8566,243.0148,116.5555,0,U,61898,999,9336,.26417741E-3,.4557E-4,0
2024-205F,2024-205F,2026-07-21T07:16:08.369760,15.15829180,.00048462,97.4076,272.8093,262.2576,97.8107,0,U,61899,999,9344,.29798963E-3,.5632E-4,0
2024-205G,2024-205G,2026-07-21T06:18:22.178880,15.11151283,.00195417,97.4113,271.0646,37.6185,322.6408,0,U,61900,999,9330,.31720284E-3,.5281E-4,0
2024-205H,2024-205H,2026-07-21T05:45:44.117280,15.32498753,.00077721,97.4092,280.2788,272.6178,87.4174,0,U,61901,999,9393,.30381352E-3,.9465E-4,0
2024-205J,2024-205J,2026-07-21T07:00:38.149344,15.12521054,.00142186,97.4118,271.6925,58.3191,301.9424,0,U,61902,999,9334,.28790636E-3,.4963E-4,0
2024-205K,2024-205K,2026-07-21T07:11:44.326176,15.31536259,.0007772,97.4088,279.2463,272.5637,87.4714,0,U,61903,999,9386,.35183893E-3,.1065E-3,0
2024-205L,2024-205L,2026-07-21T07:51:29.099232,15.08383497,.00654385,97.4115,271.5879,247.6233,111.8054,0,U,61904,999,9334,.26544128E-3,.427E-4,0
2024-205M,2024-205M,2026-07-21T07:29:28.701600,15.30125998,.00058385,97.3826,276.5902,168.4458,191.6918,0,U,61905,999,9372,.19381323E-3,.5576E-4,0
2024-205N,2024-205N,2026-07-21T07:19:38.682912,15.39227551,.00066824,97.4144,283.4261,262.2217,97.8270,0,U,61906,999,9412,.43181617E-3,.16742E-3,0
2024-205P,2024-205P,2026-07-21T07:16:37.981632,15.17408890,.00102357,97.4110,274.0260,303.2178,56.8074,0,U,61907,999,9350,.14365022E-3,.2808E-4,0
2024-205Q,2024-205Q,2026-07-21T07:03:23.942304,15.17662846,.00102323,97.4111,274.0706,302.3970,57.6274,0,U,61908,999,9350,.19772392E-3,.3919E-4,0
KOREASAT 6A,2024-206A,2026-07-21T02:40:38.554176,1.00272700,.00010594,0.0276,102.0417,340.7952,12.2140,0,U,61910,999,618,0,-.361E-5,0
STARLINK-32303,2024-207A,2026-07-21T03:36:01.886112,15.27592266,.00010948,42.9971,247.9807,270.2391,89.8335,0,U,61912,999,9572,.44464757E-3,.11998E-3,0
STARLINK-32434,2024-207B,2026-07-21T04:14:53.746080,15.27584365,.00015325,43.0016,248.1904,274.7685,85.2992,0,U,61913,999,9513,.35982549E-3,.9654E-4,0
STARLINK-32460,2024-207C,2026-07-21T04:29:28.774176,15.27600723,.00013879,43.0009,247.4029,266.9685,93.1008,0,U,61914,999,9514,.62772296E-3,.17062E-3,0
STARLINK-32559,2024-207D,2026-07-21T06:00:02.999808,15.56353731,.00015882,42.9993,243.0726,281.7418,271.9231,0,U,61915,999,587,.2110397E-2,.155424E-2,0
STARLINK-32541,2024-207E,2026-07-21T04:10:29.431200,15.27587313,.00017908,43.0002,251.6230,280.8575,79.2075,0,U,61916,999,9509,.29692947E-3,.7919E-4,0
STARLINK-32544,2024-207F,2026-07-21T05:00:56.208096,15.27585448,.00012939,43.0002,247.5656,266.3751,93.6952,0,U,61917,999,9514,.25929508E-3,.6881E-4,0
STARLINK-32555,2024-207G,2026-07-21T04:27:08.740512,15.27596474,.00009166,43.0004,251.7093,281.2575,78.8174,0,U,61918,999,9509,.38117852E-3,.10247E-3,0
STARLINK-32547,2024-207H,2026-07-19T21:08:11.782752,15.27585040,.00022518,43.0030,254.7989,265.7803,94.2791,0,U,61919,999,9493,.14949278E-3,.3854E-4,0
STARLINK-32616,2024-207J,2026-07-20T19:56:20.885856,15.27575176,.0002624,43.0014,249.8829,268.9668,91.0883,0,U,61920,999,9508,.43914376E-3,.1184E-3,0
STARLINK-32605,2024-207K,2026-07-21T03:21:13.585248,15.27593156,.00017843,42.9993,247.9047,144.0907,216.0065,0,U,61921,999,9513,.35937183E-3,.9644E-4,0
STARLINK-32579,2024-207L,2026-07-21T04:04:56.242560,15.27588294,.00013952,42.9970,251.5924,275.1543,84.9149,0,U,61922,999,9509,.28270581E-3,.7527E-4,0
STARLINK-32537,2024-207M,2026-07-21T04:30:50.709888,15.27595082,.00007067,42.9998,251.7256,274.7099,85.3672,0,U,61923,999,9509,.3581939E-3,.9612E-4,0
STARLINK-32564,2024-207N,2026-07-21T04:21:35.481024,15.27598659,.00030667,43.0015,251.6778,289.9202,70.1319,0,U,61924,999,9509,.41215558E-3,.11103E-3,0
STARLINK-32536,2024-207P,2026-07-21T04:36:23.501952,15.27593851,.00011226,42.9996,251.7525,227.6996,132.3760,0,U,61925,999,9509,.53271065E-3,.14432E-3,0
STARLINK-32624,2024-207Q,2026-07-21T04:22:05.338272,15.27608098,.00020066,43.0017,247.3617,276.3986,83.6638,0,U,61926,999,9514,.39349573E-3,.10591E-3,0
STARLINK-32622,2024-207R,2026-07-21T04:33:10.578528,15.27602157,.00020319,43.0024,247.4210,270.3139,89.7480,0,U,61927,999,9514,.54611811E-3,.14806E-3,0
STARLINK-32620,2024-207S,2026-07-21T03:41:34.797408,15.27594428,.00010044,42.9972,248.0077,280.4167,79.6571,0,U,61928,999,9513,.42004917E-3,.1132E-3,0
