2024-205D               
1 61897U 24205D   26202.27122998  .00004462  00000+0  22017-3 0  9996
2 61897  97.4077 273.0563 0010193 301.4897  58.5340 15.18369672 93453
2024-205E               
1 61898U 24205E   26202.25374756  .00004557  00000+0  26418-3 0  9990
2 61898  97.4099 271.8566 0054078 243.0148 116.5555 15.11429755 93362
2024-205F               
1 61899U 24205F   26202.30287465  .00005632  00000+0  29799-3 0  9997
2 61899  97.4076 272.8093 0004846 262.2576  97.8107 15.15829180 93443
2024-205G               
1 61900U 24205G   26202.26275670  .00005281  00000+0  31720-3 0  9997
2 61900  97.4113 271.0646 0019541  37.6185 322.6408 15.11151283 93307
2024-205H               
1 61901U 24205H   26202.24009395  .00009465  00000+0  30381-3 0  9995
2 61901  97.4092 280.2788 0007772 272.6178  87.4174 15.32498753 93933
2024-205J               
1 61902U 24205J   26202.29210821  .00004963  00000+0  28791-3 0  9999
2 61902  97.4118 271.6925 0014218  58.3191 301.9424 15.12521054 93343
2024-205K               
1 61903U 24205K   26202.29981859  .00010650  00000+0  35184-3 0  9990
2 61903  97.4088 279.2463 0007772 272.5637  87.4714 15.31536259 93862
2024-205L               
1 61904U 24205L   26202.32742013  .00004270  00000+0  26544-3 0  9993
2 61904  97.4115 271.5879 0065438 247.6233 111.8054 15.08383497 93348
2024-205M               
1 61905U 24205M   26202.31213775  .00005576  00000+0  19381-3 0  9992
2 61905  97.3826 276.5902 0005838 168.4458 191.6918 15.30125998 93728
2024-205N               
1 61906U 24205N   26202.30530883  .00016742  00000+0  43182-3 0  9997
2 61906  97.4144 283.4261 0006682 262.2217  97.8270 15.39227551 94122
2024-205P               
1 61907U 24205P   26202.30321738  .00002808  00000+0  14365-3 0  9994
2 61907  97.4110 274.0260 0010235 303.2178  56.8074 15.17408890 93503
2024-205Q               
1 61908U 24205Q   26202.29402711  .00003919  00000+0  19772-3 0  9995
2 61908  97.4111 274.0706 0010232 302.3970  57.6274 15.17662846 93501
KOREASAT 6A             
1 61910U 24206A   26202.11155734 -.00000361  00000+0  00000+0 0  9999
2 61910   0.0276 102.0417 0001059 340.7952  12.2140  1.00272700  6188
STARLINK-32303          
1 61912U 24207A   26202.15002183  .00011998  00000+0  44465-3 0  9999
2 61912  42.9971 247.9807 0001094 270.2391  89.8335 15.27592266 95722
STARLINK-32434          
1 61913U 24207B   26202.17701095  .00009654  00000+0  35983-3 0  9991
2 61913  43.0016 248.1904 0001532 274.7685  85.2992 15.27584365 95133
STARLINK-32460          
1 61914U 24207C   26202.18713859  .00017062  00000+0  62772-3 0  9992
2 61914  43.0009 247.4029 0001387 266.9685  93.1008 15.27600723 95141
STARLINK-32559          
1 61915U 24207D   26202.25003472  .00155424  00000+0  21104-2 0  9992
2 61915  42.9993 243.0726 0001588 281.7418 271.9231 15.56353731  5871
STARLINK-32541          
1 61916U 24207E   26202.17395175  .00007919  00000+0  29693-3 0  9995
2 61916  43.0002 251.6230 0001790 280.8575  79.2075 15.27587313 95090
STARLINK-32544          
1 61917U 24207F   26202.20898389  .00006881  00000+0  25930-3 0  9992
2 61917  43.0002 247.5656 0001293 266.3751  93.6952 15.27585448 95147
STARLINK-32555          
1 61918U 24207G   26202.18551783  .00010247  00000+0  38118-3 0  9997
2 61918  43.0004 251.7093 0000916 281.2575  78.8174 15.27596474 95099
STARLINK-32547          
1 61919U 24207H   26200.88069193  .00003854  00000+0  14949-3 0  9994
2 61919  43.0030 254.7989 0002251 265.7803  94.2791 15.27585040 94937
STARLINK-32616          
1 61920U 24207J   26201.83079729  .00011840  00000+0  43914-3 0  9996
2 61920  43.0014 249.8829 0002624 268.9668  91.0883 15.27575176 95080
STARLINK-32605          
1 61921U 24207K   26202.13974057  .00009644  00000+0  35937-3 0  9994
2 61921  42.9993 247.9047 0001784 144.0907 216.0065 15.27593156 95137
STARLINK-32579          
1 61922U 24207L   26202.17009540  .00007527  00000+0  28271-3 0  9996
2 61922  42.9970 251.5924 0001395 275.1543  84.9149 15.27588294 95095
STARLINK-32537          
1 61923U 24207M   26202.18808692  .00009612  00000+0  35819-3 0  9996
2 61923  42.9998 251.7256 0000706 274.7099  85.3672 15.27595082 95091
STARLINK-32564          
1 61924U 24207N   26202.18166066  .00011103  00000+0  41216-3 0  9995
2 61924  43.0015 251.6778 0003066 289.9202  70.1319 15.27598659 95091
STARLINK-32536          
1 61925U 24207P   26202.19193868  .00014432  00000+0  53271-3 0  9999
2 61925  42.9996 251.7525 0001122 227.6996 132.3760 15.27593851 95099
STARLINK-32624          
1 61926U 24207Q   26202.18200623  .00010591  00000+0  39350-3 0  9991
2 61926  43.0017 247.3617 0002006 276.3986  83.6638 15.27608098 95149
STARLINK-32622          
1 61927U 24207R   26202.18970577  .00014806  00000+0  54612-3 0  9995
2 61927  43.0024 247.4210 0002031 270.3139  89.7480 15.27602157 95142
STARLINK-32620          
1 61928U 24207S   26202.15387497  .00011320  00000+0  42005-3 0  9997
2 61928  42.9972 248.0077 0001004 280.4167  79.6571 15.27594428 95132
